{"features":[{"geometry":{"geometries":[{"coordinates":[[90.701667,38.683333],[97.633333,36.151667],[100.093056,35.126944]],"type":"LineString"},{"coordinates":[[92.18,39.751667],[92.5,38.166667]],"type":"LineString"},{"coordinates":[[90.188333,37.758333],[96.5,34.108333]],"type":"LineString"},{"coordinates":[[97.633333,36.151667],[98.488333,33.948333]],"type":"LineString"}],"type":"GeometryCollection"},"properties":{"area_group":"CN","category":"other","date":"2026-09-25","ended_by":null,"estimated_end":false,"fir":"ZLHW","first_seen":"2026-09-25T02:00:00+00:00","focus_tag":"admin","geometry_source":"text-route-segments","icao_location":"ZLHW","issuer":"DEMOACC","keyword_hit":true,"kind":"area","last_updated":"2026-09-25T01:00:00Z","lower":null,"matched_keywords":["CLSD"],"nms_id":"DEMO3","notam_type":"N","number":"A1496/26","q_code":"QARLC","qline_offset_nm":null,"radius_nm":null,"raw_text":"A1496/26 NOTAMN Q) ZLHW/QARLC/IV/BO/W/000/999/ A) ZLHW B) 2609250100 C) 2612310500 E) FLW SEGMENT OF ATS RTE CLSD: 1.Y1: MAGOD - MEPEP - N350737E1000535. 2.W192: RUSDI - DUMIN. 3.L888: TONAX - MUMAN. 4.Y2: MEPEP - N335654E0982918. F)GND G)UNL","series":"A","source":"nms","status":"active","title":"中国本土 ZLHW A1496/26","unresolved_waypoints":[],"upper":null,"valid_end":"2026-12-31T05:00:00+00:00","valid_raw":[],"valid_start":"2026-09-25T01:00:00+00:00"},"type":"Feature"},{"geometry":{"geometries":[{"coordinates":[[90.701667,38.683333],[96.06,36.778333]],"type":"LineString"},{"coordinates":[[92.3,39.083333],[92.5,38.166667]],"type":"LineString"},{"coordinates":[[90.958333,38.878333],[92.3,39.083333]],"type":"LineString"},{"coordinates":[[[92.5,38.43616],[92.533598,38.434863],[92.566872,38.430982],[92.599502,38.424556],[92.631173,38.415646],[92.661582,38.404339],[92.690434,38.390743],[92.717453,38.374988],[92.742377,38.357228],[92.764967,38.337632],[92.785005,38.316389],[92.802298,38.293705],[92.81668,38.269798],[92.828013,38.244897],[92.836186,38.219243],[92.841122,38.193082],[92.842772,38.166667],[92.841122,38.140252],[92.836186,38.114091],[92.828013,38.088437],[92.81668,38.063536],[92.802298,38.039629],[92.785005,38.016945],[92.764967,37.995702],[92.742377,37.976106],[92.717453,37.958346],[92.690434,37.942591],[92.661582,37.928995],[92.631173,37.917688],[92.599502,37.908778],[92.566872,37.902352],[92.533598,37.898471],[92.5,37.897174],[92.466402,37.898471],[92.433128,37.902352],[92.400498,37.908778],[92.368827,37.917688],[92.338418,37.928995],[92.309566,37.942591],[92.282547,37.958346],[92.257623,37.976106],[92.235033,37.995702],[92.214995,38.016945],[92.197702,38.039629],[92.18332,38.063536],[92.171987,38.088437],[92.163814,38.114091],[92.158878,38.140252],[92.157228,38.166667],[92.158878,38.193082],[92.163814,38.219243],[92.171987,38.244897],[92.18332,38.269798],[92.197702,38.293705],[92.214995,38.316389],[92.235033,38.337632],[92.257623,38.357228],[92.282547,38.374988],[92.309566,38.390743],[92.338418,38.404339],[92.368827,38.415646],[92.400498,38.424556],[92.433128,38.430982],[92.466402,38.434863],[92.5,38.43616]]],"type":"Polygon"}],"type":"GeometryCollection"},"properties":{"area_group":"CN","category":"other","date":"2026-09-25","ended_by":null,"estimated_end":false,"fir":"ZLHW","first_seen":"2026-09-25T02:00:00+00:00","focus_tag":"admin","geometry_source":"text-route-segments","icao_location":"ZLHW","issuer":"DEMOACC","keyword_hit":true,"kind":"area","last_updated":"2026-09-25T01:00:00Z","lower":null,"matched_keywords":["CLSD"],"nms_id":"DEMO2","notam_type":"N","number":"A1945/26","q_code":"QARLC","qline_offset_nm":null,"radius_nm":null,"raw_text":"A1945/26 NOTAMN Q) ZLHW/QARLC/IV/BO/W/000/999/ A) ZLHW B) 2609250100 C) 2612310500 E) FLW SEGMENT OF ATS RTE CLSD: 1.Y1: MAGOD - IRTOL. 2.W192: TUSLI - DUMIN. 3.W112: ADMUX - TUSLI. 4.SEGMENT WITHIN A CIRCLE CENTERED AT DUMIN WITH RADIUS OF 30KM. F)GND G)UNL","series":"A","source":"nms","status":"active","title":"中国本土 ZLHW A1945/26","unresolved_waypoints":[],"upper":null,"valid_end":"2026-12-31T05:00:00+00:00","valid_raw":[],"valid_start":"2026-09-25T01:00:00+00:00"},"type":"Feature"},{"geometry":{"coordinates":[[[92.18,39.751667],[86.0,40.076667],[87.770833,36.740833],[92.18,39.751667]]],"type":"Polygon"},"properties":{"area_group":"CN","category":"restriction","date":"2026-09-25","ended_by":null,"estimated_end":false,"fir":"ZWUQ","first_seen":"2026-09-25T02:00:00+00:00","focus_tag":"restriction","geometry_source":"text-polygon-waypoint","icao_location":"ZWUQ","issuer":"DEMOACC","keyword_hit":true,"kind":"area","last_updated":"2026-09-25T01:00:00Z","lower":null,"matched_keywords":["FORBIDDEN"],"nms_id":"DEMO1","notam_type":"N","number":"A1921/26","q_code":"QRTCA","qline_offset_nm":null,"radius_nm":null,"raw_text":"A1921/26 NOTAMN Q) ZWUQ/QRTCA/IV/BO/W/000/999/ A) ZWUQ B) 2609250100 C) 2612310300 E) ACFT ARE FORBIDDEN ENTER FLW AREA: RUSDI-SADAN-N364427E0874615-RUSDI. F)GND G)UNL","series":"A","source":"nms","status":"active","title":"中国本土 ZWUQ A1921/26","unresolved_waypoints":[],"upper":null,"valid_end":"2026-12-31T03:00:00+00:00","valid_raw":[],"valid_start":"2026-09-25T01:00:00+00:00"},"type":"Feature"},{"geometry":{"coordinates":[[92.18,39.751667],[87.770833,36.740833],[92.18,39.751667]],"type":"LineString"},"properties":{"area_group":"CN","category":"restriction","date":"2026-09-25","ended_by":null,"estimated_end":false,"fir":"ZWUQ","first_seen":"2026-09-25T02:00:00+00:00","focus_tag":"restriction","geometry_source":"text-line-incomplete","icao_location":"ZWUQ","issuer":"DEMOACC","keyword_hit":true,"kind":"area","last_updated":"2026-09-25T01:00:00Z","lower":null,"matched_keywords":["FORBIDDEN"],"nms_id":"DEMO4","notam_type":"N","number":"A9001/26","q_code":"QRTCA","qline_offset_nm":null,"radius_nm":null,"raw_text":"A9001/26 NOTAMN Q) ZWUQ/QRTCA/IV/BO/W/000/999/ A) ZWUQ B) 2609250100 C) 2612310300 E) ACFT ARE FORBIDDEN ENTER FLW AREA: RUSDI-NOSUCHPT-N364427E0874615-RUSDI. F)GND G)UNL","series":"A","source":"nms","status":"active","title":"中国本土 ZWUQ A9001/26","unresolved_waypoints":["NOSUCHPT"],"upper":null,"valid_end":"2026-12-31T03:00:00+00:00","valid_raw":[],"valid_start":"2026-09-25T01:00:00+00:00"},"type":"Feature"}],"type":"FeatureCollection"}
