{"features":[{"geometry":{"coordinates":[[[120.266667,22.866517],[120.27551,22.866116],[120.284268,22.864919],[120.292857,22.862935],[120.301194,22.860185],[120.309198,22.856695],[120.316792,22.852498],[120.323904,22.847635],[120.330464,22.842153],[120.33641,22.836104],[120.341685,22.829548],[120.346236,22.822546],[120.350022,22.815166],[120.353005,22.80748],[120.355156,22.799562],[120.356455,22.791487],[120.35689,22.783333],[120.356455,22.77518],[120.355156,22.767105],[120.353005,22.759186],[120.350022,22.7515],[120.346236,22.744121],[120.341685,22.737119],[120.33641,22.730562],[120.330464,22.724514],[120.323904,22.719032],[120.316792,22.714169],[120.309198,22.709972],[120.301194,22.706482],[120.292857,22.703732],[120.284268,22.701748],[120.27551,22.70055],[120.266667,22.70015],[120.257823,22.70055],[120.249065,22.701748],[120.240476,22.703732],[120.23214,22.706482],[120.224136,22.709972],[120.216541,22.714169],[120.20943,22.719032],[120.202869,22.724514],[120.196923,22.730562],[120.191649,22.737119],[120.187097,22.744121],[120.183311,22.7515],[120.180328,22.759186],[120.178177,22.767105],[120.176878,22.77518],[120.176443,22.783333],[120.176878,22.791487],[120.178177,22.799562],[120.180328,22.80748],[120.183311,22.815166],[120.187097,22.822546],[120.191649,22.829548],[120.196923,22.836104],[120.202869,22.842153],[120.20943,22.847635],[120.216541,22.852498],[120.224136,22.856695],[120.23214,22.860185],[120.240476,22.862935],[120.249065,22.864919],[120.257823,22.866116],[120.266667,22.866517]]],"type":"Polygon"},"properties":{"area_group":"TW","category":"other","date":"2012-07-04","ended_by":null,"estimated_end":true,"fir":"RCAA","first_seen":"2026-09-24T12:20:06+00:00","focus_tag":"admin","geometry_source":"qline-circle","icao_location":"RCAY","issuer":"RCTPYNYX","keyword_hit":true,"kind":"area","last_updated":"2014-08-06T15:45:00Z","lower":null,"matched_keywords":["CLSD"],"nms_id":"1758776606382841","notam_type":"N","number":"C0466/12","q_code":"QMNXX","qline_offset_nm":null,"radius_nm":5.0,"raw_text":"C0466/12 NOTAMN \nQ) RCAA/QMNXX/IV/BO/A/000/999/2247N12016E005\nA) RCAY B) 1205230300 C) 1208201600 EST\nE) AT-3 TEST AREA N OF PRKG BAY NR 1\nCLSD DUE TO WIP.","series":"C","source":"nms","status":"expired","title":"台湾 RCAY C0466/12","unresolved_waypoints":[],"upper":null,"valid_end":"2012-08-20T16:00:00+00:00","valid_raw":[],"valid_start":"2012-05-23T03:00:00+00:00"},"type":"Feature"}],"type":"FeatureCollection"}
