{"features":[{"geometry":{"coordinates":[[[109.633333,25.483184],[109.642359,25.482783],[109.651298,25.481585],[109.660064,25.479602],[109.668573,25.476852],[109.676742,25.473361],[109.684493,25.469165],[109.691751,25.464302],[109.698447,25.45882],[109.704516,25.452771],[109.709899,25.446214],[109.714545,25.439212],[109.718409,25.431833],[109.721453,25.424147],[109.723649,25.416228],[109.724975,25.408153],[109.725418,25.4],[109.724975,25.391847],[109.723649,25.383772],[109.721453,25.375853],[109.718409,25.368167],[109.714545,25.360788],[109.709899,25.353786],[109.704516,25.347229],[109.698447,25.34118],[109.691751,25.335698],[109.684493,25.330835],[109.676742,25.326639],[109.668573,25.323148],[109.660064,25.320398],[109.651298,25.318415],[109.642359,25.317217],[109.633333,25.316816],[109.624307,25.317217],[109.615368,25.318415],[109.606602,25.320398],[109.598094,25.323148],[109.589925,25.326639],[109.582174,25.330835],[109.574915,25.335698],[109.568219,25.34118],[109.562151,25.347229],[109.556767,25.353786],[109.552122,25.360788],[109.548258,25.368167],[109.545213,25.375853],[109.543018,25.383772],[109.541692,25.391847],[109.541248,25.4],[109.541692,25.408153],[109.543018,25.416228],[109.545213,25.424147],[109.548258,25.431833],[109.552122,25.439212],[109.556767,25.446214],[109.562151,25.452771],[109.568219,25.45882],[109.574915,25.464302],[109.582174,25.469165],[109.589925,25.473361],[109.598094,25.476852],[109.606602,25.479602],[109.615368,25.481585],[109.624307,25.482783],[109.633333,25.483184]]],"type":"Polygon"},"properties":{"area_group":"CN","category":"warning","date":"2004-11-08","ended_by":null,"estimated_end":true,"fir":"ZGZU","first_seen":"2026-09-24T12:20:06+00:00","focus_tag":"flag","geometry_source":"qline-circle","icao_location":"ZGZU","issuer":"ZBBBYNYX","keyword_hit":false,"kind":"area","last_updated":"2014-08-06T15:45:00Z","lower":"GND","matched_keywords":[],"nms_id":"1758776606256677","notam_type":"N","number":"C1167/04","q_code":"QWMLW","qline_offset_nm":null,"radius_nm":5.0,"raw_text":"C1167/04 NOTAMN\nQ) ZGZU/QWMLW/IV/BO/W/000/197/2524N10938E005\nA) ZGZU B) 0411072052 C) 0412312359EST\nE) 5816 1344 4905 0086 1562 3517 1410 ,PSN:\nN252404E1093740. 1410 7559 6000M, 3517 1410 0584 1777 10KM.\nF) GND\nG) 6000M(AGL) .","series":"C","source":"nms","status":"expired","title":"中国本土 ZGZU C1167/04","upper":"6000M(AGL .","valid_end":"2004-12-31T23:59:00+00:00","valid_raw":[],"valid_start":"2004-11-07T20:52:00+00:00"},"type":"Feature"},{"geometry":{"coordinates":[[[109.516667,25.366517],[109.525684,25.366116],[109.534614,25.364919],[109.543372,25.362935],[109.551872,25.360185],[109.560033,25.356695],[109.567777,25.352498],[109.575028,25.347635],[109.581718,25.342153],[109.587781,25.336104],[109.593159,25.329548],[109.5978,25.322546],[109.60166,25.315166],[109.604702,25.30748],[109.606895,25.299562],[109.60822,25.291487],[109.608663,25.283333],[109.60822,25.27518],[109.606895,25.267105],[109.604702,25.259186],[109.60166,25.2515],[109.5978,25.244121],[109.593159,25.237119],[109.587781,25.230562],[109.581718,25.224514],[109.575028,25.219032],[109.567777,25.214169],[109.560033,25.209972],[109.551872,25.206482],[109.543372,25.203732],[109.534614,25.201748],[109.525684,25.20055],[109.516667,25.20015],[109.507649,25.20055],[109.498719,25.201748],[109.489962,25.203732],[109.481461,25.206482],[109.4733,25.209972],[109.465556,25.214169],[109.458305,25.219032],[109.451616,25.224514],[109.445553,25.230562],[109.440175,25.237119],[109.435533,25.244121],[109.431673,25.2515],[109.428632,25.259186],[109.426438,25.267105],[109.425113,25.27518],[109.42467,25.283333],[109.425113,25.291487],[109.426438,25.299562],[109.428632,25.30748],[109.431673,25.315166],[109.435533,25.322546],[109.440175,25.329548],[109.445553,25.336104],[109.451616,25.342153],[109.458305,25.347635],[109.465556,25.352498],[109.4733,25.356695],[109.481461,25.360185],[109.489962,25.362935],[109.498719,25.364919],[109.507649,25.366116],[109.516667,25.366517]]],"type":"Polygon"},"properties":{"area_group":"CN","category":"warning","date":"2004-11-08","ended_by":null,"estimated_end":true,"fir":"ZGZU","first_seen":"2026-09-24T12:20:06+00:00","focus_tag":"flag","geometry_source":"qline-circle","icao_location":"ZGZU","issuer":"ZBBBYNYX","keyword_hit":false,"kind":"area","last_updated":"2014-08-06T15:45:00Z","lower":"GND","matched_keywords":[],"nms_id":"1758720841566068","notam_type":"N","number":"C1168/04","q_code":"QWMLW","qline_offset_nm":null,"radius_nm":5.0,"raw_text":"C1168/04 NOTAMN\nQ) ZGZU/QWMLW/IV/BO/W/000/197/2517N10931E005\nA) ZGZU B) 0411072054 C) 0412312359EST\nE) 5816 1344 4905 0086 1562 3517 1410 ,PSN:\nN251707E1093030. 1410 7559 6000M, 3517 1410 0584 1777 10KM.\nF) GND\nG) 6000M(AGL) .","series":"C","source":"nms","status":"expired","title":"中国本土 ZGZU C1168/04","upper":"6000M(AGL .","valid_end":"2004-12-31T23:59:00+00:00","valid_raw":[],"valid_start":"2004-11-07T20:54:00+00:00"},"type":"Feature"}],"type":"FeatureCollection"}
