{"features":[{"geometry":{"coordinates":[120.65,25.033333],"type":"Point"},"properties":{"area_group":"TW","category":"other","date":"2012-07-02","ended_by":null,"estimated_end":true,"fir":"RCAA","first_seen":"2026-09-24T12:20:06+00:00","focus_tag":"admin","geometry_source":"qline-point","icao_location":"RCAA","issuer":"RCTPYNYX","keyword_hit":false,"kind":"point","last_updated":"2014-08-06T15:45:00Z","lower":null,"matched_keywords":[],"nms_id":"1758720095972946","notam_type":"R","number":"C0709/12","q_code":"QKKKK","qline_offset_nm":null,"radius_nm":298.0,"raw_text":"C0709/12 NOTAMR C0507/12 \nQ) RCAA/QKKKK/K/K/K/000/999/2502N12039E298\nA) RCAA B) 1207010000 C) 1207312359 EST\nE) CHECKLIST OF NOTAM IN FORCE ON 01 JUL 2012\nYEAR=2012 0111 0256 0287 0297 0318 0455 0465 0466 0467 0519\n          0520 0551 0602 0635 0693 0694 0695 0700 0702 0703\n          0704\nLATEST PUBLICATIONS:    \nAIRAC AIP AMDT 03/12\nAIP AMDT       03/12\nAIP SUP        04/12\nAIC            02/12\nAIRAC PUBLICATION EFF 26 JUL 2012:NIL","series":"C","source":"nms","status":"expired","title":"台湾 RCAA C0709/12","unresolved_waypoints":[],"upper":null,"valid_end":"2012-07-31T23:59:00+00:00","valid_raw":[],"valid_start":"2012-07-01T00:00:00+00:00"},"type":"Feature"}],"type":"FeatureCollection"}
