{"features":[{"geometry":{"coordinates":[114.266667,25.1],"type":"Point"},"properties":{"area_group":"CN","category":"other","date":"2026-06-29","ended_by":"A4947/26","estimated_end":true,"fir":"ZGZU","first_seen":"2026-09-24T09:24:57+00:00","focus_tag":"admin","geometry_source":"qline-point","icao_location":"ZGZU","issuer":"ZBBBYNYX","kind":"point","last_updated":"2026-09-24T07:59:00.000Z","lower":null,"nms_id":"1782720767892000","notam_type":"R","number":"A2472/26","q_code":"QNMAS","qline_offset_nm":null,"radius_nm":null,"raw_text":"A2472/26 NOTAMR A4723/25\r\nQ)ZGZU/QNMAS/IV/BO/E/000/999/2506N11416E025\r\nA)ZGZU B)2606290810 C)2609301559 EST\r\nE) NANXIONG VOR/DME 'NNX' 115.6MHZ/CH103X U/S DUE TO MAINT.","series":"A","source":"nms","status":"cancelled","title":"中国本土 ZGZU A2472/26","upper":null,"valid_end":"2026-09-24T07:59:00+00:00","valid_raw":[],"valid_start":"2026-06-29T08:10:00+00:00"},"type":"Feature"},{"geometry":{"coordinates":[[[110.45,19.216517],[110.45863,19.216116],[110.467177,19.214919],[110.475559,19.212935],[110.483694,19.210185],[110.491505,19.206695],[110.498917,19.202498],[110.505857,19.197635],[110.512259,19.192153],[110.518062,19.186104],[110.523209,19.179548],[110.527651,19.172546],[110.531345,19.165166],[110.534256,19.15748],[110.536356,19.149562],[110.537624,19.141487],[110.538048,19.133333],[110.537624,19.12518],[110.536356,19.117105],[110.534256,19.109186],[110.531345,19.1015],[110.527651,19.094121],[110.523209,19.087119],[110.518062,19.080562],[110.512259,19.074514],[110.505857,19.069032],[110.498917,19.064169],[110.491505,19.059972],[110.483694,19.056482],[110.475559,19.053732],[110.467177,19.051748],[110.45863,19.05055],[110.45,19.05015],[110.44137,19.05055],[110.432823,19.051748],[110.424441,19.053732],[110.416306,19.056482],[110.408495,19.059972],[110.401083,19.064169],[110.394143,19.069032],[110.387741,19.074514],[110.381938,19.080562],[110.376791,19.087119],[110.372349,19.094121],[110.368655,19.1015],[110.365744,19.109186],[110.363644,19.117105],[110.362376,19.12518],[110.361952,19.133333],[110.362376,19.141487],[110.363644,19.149562],[110.365744,19.15748],[110.368655,19.165166],[110.372349,19.172546],[110.376791,19.179548],[110.381938,19.186104],[110.387741,19.192153],[110.394143,19.197635],[110.401083,19.202498],[110.408495,19.206695],[110.416306,19.210185],[110.424441,19.212935],[110.432823,19.214919],[110.44137,19.216116],[110.45,19.216517]]],"type":"Polygon"},"properties":{"area_group":"CN","category":"other","date":"2026-07-21","ended_by":"G4314/26","estimated_end":false,"fir":"ZJSA","first_seen":"2026-09-24T09:24:57+00:00","focus_tag":"admin","geometry_source":"qline-circle","icao_location":"ZJQH","issuer":"ZBBBYNYX","kind":"area","last_updated":"2026-09-24T03:52:00Z","lower":null,"nms_id":"1784636214658000","notam_type":"R","number":"G3278/26","q_code":"QFAHX","qline_offset_nm":null,"radius_nm":5.0,"raw_text":"G3278/26 NOTAMR G1514/26\r\nQ)ZJSA/QFAHX/IV/NBO/A/000/999/1908N11027E005\r\nA)ZJQH B)2607210951 C)2610201559 \r\nE) BIRD FLOCKS MIGRATION TAKE PLACE AROUND AD,CENTERED AT ARP WITH \r\nA RADIUS OF 5KM:\r\nALT: 0M-100M.\r\nMOVE FASTIGIUM TIME: 2300-1100(NEXT DAY),0930-1530.\r\nAERODROME AUTHORITY RESORTS TO DISPERSAL METHODS TO REDUCE BIRD \r\nACTIVITIES.\r\nEXERCISE CAUTION WHILE LANDING AND TAKE-OFF.","series":"G","source":"nms","status":"cancelled","title":"中国本土 ZJQH G3278/26","upper":null,"valid_end":"2026-09-24T03:51:00+00:00","valid_raw":[],"valid_start":"2026-07-21T09:51:00+00:00"},"type":"Feature"},{"geometry":{"coordinates":[[[106.633333,29.79985],[106.642721,29.79945],[106.652019,29.798252],[106.661137,29.796268],[106.669987,29.793518],[106.678484,29.790028],[106.686546,29.785831],[106.694095,29.780968],[106.70106,29.775486],[106.707372,29.769438],[106.712971,29.762881],[106.717804,29.755879],[106.721822,29.7485],[106.724989,29.740814],[106.727273,29.732895],[106.728652,29.72482],[106.729113,29.716667],[106.728652,29.708513],[106.727273,29.700438],[106.724989,29.69252],[106.721822,29.684834],[106.717804,29.677454],[106.712971,29.670452],[106.707372,29.663896],[106.70106,29.657847],[106.694095,29.652365],[106.686546,29.647502],[106.678484,29.643305],[106.669987,29.639815],[106.661137,29.637065],[106.652019,29.635081],[106.642721,29.633884],[106.633333,29.633483],[106.623945,29.633884],[106.614648,29.635081],[106.60553,29.637065],[106.59668,29.639815],[106.588183,29.643305],[106.580121,29.647502],[106.572571,29.652365],[106.565607,29.657847],[106.559294,29.663896],[106.553695,29.670452],[106.548863,29.677454],[106.544844,29.684834],[106.541678,29.69252],[106.539394,29.700438],[106.538015,29.708513],[106.537553,29.716667],[106.538015,29.72482],[106.539394,29.732895],[106.541678,29.740814],[106.544844,29.7485],[106.548863,29.755879],[106.553695,29.762881],[106.559294,29.769438],[106.565607,29.775486],[106.572571,29.780968],[106.580121,29.785831],[106.588183,29.790028],[106.59668,29.793518],[106.60553,29.796268],[106.614648,29.798252],[106.623945,29.79945],[106.633333,29.79985]]],"type":"Polygon"},"properties":{"area_group":"CN","category":"other","date":"2026-09-01","ended_by":"U4408/26","estimated_end":false,"fir":"ZPKM","first_seen":"2026-09-24T09:24:57+00:00","focus_tag":"admin","geometry_source":"qline-circle","icao_location":"ZUCK","issuer":"ZBBBYNYX","kind":"area","last_updated":"2026-09-24T03:37:00Z","lower":null,"nms_id":"1788276148887000","notam_type":"N","number":"U4148/26","q_code":"QMOXX","qline_offset_nm":null,"radius_nm":5.0,"raw_text":"U4148/26 NOTAMN\r\nQ)ZPKM/QMOXX/IV/NBO/A/000/999/2943N10638E005\r\nA)ZUCK B)2609040200 C)2609291000 \r\nE) STOP BAR LIGHTS OPERATION VERIFICATION IMPLEMENT WI AREA EAST \r\nOF TWY G, STOP BAR LIGHTS OPERATION RULES:\r\n1. ACFT SHALL CROSS STOP BAR LIGHTS WHEN ALL CONDITIONS ARE MET:\r\n1.1 RECEIVE THE INSTRUCTION TO ENTER OR CROSS RWY.\r\n1.2 THE STOP BAR LIGHTS IS OFF.\r\n1.3 TWY CL LIGHTS ARE ILLUMINATED (GREEN AND YELLOW).\r\n2. IF ABOVE THREE CONDITIONS ARE NOT MET AT THE SAME TIME, ACFT \r\nPILOT SHALL CONTACT ATC TO CONFIRM AND FOLLOW THE ATC INSTRUCTION.","series":"U","source":"nms","status":"cancelled","title":"中国本土 ZUCK U4148/26","upper":null,"valid_end":"2026-09-24T03:36:00+00:00","valid_raw":[],"valid_start":"2026-09-04T02:00:00+00:00"},"type":"Feature"},{"geometry":{"coordinates":[[[79.866667,37.116517],[79.87688,37.116116],[79.886996,37.114919],[79.896915,37.112935],[79.906543,37.110185],[79.915788,37.106695],[79.924559,37.102498],[79.932772,37.097635],[79.940349,37.092153],[79.947217,37.086104],[79.953308,37.079548],[79.958565,37.072546],[79.962938,37.065166],[79.966383,37.05748],[79.968867,37.049562],[79.970368,37.041487],[79.97087,37.033333],[79.970368,37.02518],[79.968867,37.017105],[79.966383,37.009186],[79.962938,37.0015],[79.958565,36.994121],[79.953308,36.987119],[79.947217,36.980562],[79.940349,36.974514],[79.932772,36.969032],[79.924559,36.964169],[79.915788,36.959972],[79.906543,36.956482],[79.896915,36.953732],[79.886996,36.951748],[79.87688,36.95055],[79.866667,36.95015],[79.856453,36.95055],[79.846338,36.951748],[79.836418,36.953732],[79.82679,36.956482],[79.817546,36.959972],[79.808775,36.964169],[79.800561,36.969032],[79.792984,36.974514],[79.786117,36.980562],[79.780025,36.987119],[79.774768,36.994121],[79.770396,37.0015],[79.766951,37.009186],[79.764466,37.017105],[79.762966,37.02518],[79.762464,37.033333],[79.762966,37.041487],[79.764466,37.049562],[79.766951,37.05748],[79.770396,37.065166],[79.774768,37.072546],[79.780025,37.079548],[79.786117,37.086104],[79.792984,37.092153],[79.800561,37.097635],[79.808775,37.102498],[79.817546,37.106695],[79.82679,37.110185],[79.836418,37.112935],[79.846338,37.114919],[79.856453,37.116116],[79.866667,37.116517]]],"type":"Polygon"},"properties":{"area_group":"CN","category":"other","date":"2026-06-30","ended_by":"W1314/26","estimated_end":true,"fir":"ZWUQ","first_seen":"2026-09-24T09:24:57+00:00","focus_tag":"admin","geometry_source":"qline-circle","icao_location":"ZWTN","issuer":"ZBBBYNYX","kind":"area","last_updated":"2026-09-24T08:30:00Z","lower":null,"nms_id":"1782825037388000","notam_type":"R","number":"W0790/26","q_code":"QFAHX","qline_offset_nm":null,"radius_nm":5.0,"raw_text":"W0790/26 NOTAMR W0332/26\r\nQ)ZWUQ/QFAHX/IV/NBO/A/000/999/3702N07952E005\r\nA)ZWTN B)2606301307 C)2609301559 EST\r\nE) ACTIVITIES OF BIRD FLOCKS WILL TAKE PLACE AROUND AD. \r\nALT:0M-100M,AERODROME AUTHORITY RESORTS TO DISPERSAL METHODS TO \r\nREDUCE BIRD. EXERCISE CAUTION WHILE LANDING AND TAKE-OFF.","series":"W","source":"nms","status":"cancelled","title":"中国本土 ZWTN W0790/26","upper":null,"valid_end":"2026-09-24T08:29:00+00:00","valid_raw":[],"valid_start":"2026-06-30T13:07:00+00:00"},"type":"Feature"},{"geometry":{"coordinates":[121.533333,38.966667],"type":"Point"},"properties":{"area_group":"CN","category":"other","date":"2026-09-22","ended_by":"Y1458/26","estimated_end":false,"fir":"ZYSH","first_seen":"2026-09-24T09:24:57+00:00","focus_tag":"admin","geometry_source":"qline-point","icao_location":"ZYTL","issuer":"ZBBBYNYX","kind":"point","last_updated":"2026-09-24T08:28:00.000Z","lower":null,"nms_id":"1790044995928000","notam_type":"N","number":"Y1432/26","q_code":"QMPLC","qline_offset_nm":null,"radius_nm":null,"raw_text":"Y1432/26 NOTAMN\r\nQ)ZYSH/QMPLC/IV/BO/A/000/999/3858N12132E005\r\nA)ZYTL B)2609230700 C)2609261500 \r\nE) PARKING STAND NR.14 CLSD DUE TO WIP.\r\n ","series":"Y","source":"nms","status":"cancelled","title":"中国本土 ZYTL Y1432/26","upper":null,"valid_end":"2026-09-24T08:26:00+00:00","valid_raw":[],"valid_start":"2026-09-23T07:00:00+00:00"},"type":"Feature"},{"geometry":{"coordinates":[121.533333,38.966667],"type":"Point"},"properties":{"area_group":"CN","category":"other","date":"2026-09-22","ended_by":"Y1457/26","estimated_end":false,"fir":"ZYSH","first_seen":"2026-09-24T09:24:57+00:00","focus_tag":"admin","geometry_source":"qline-point","icao_location":"ZYTL","issuer":"ZBBBYNYX","kind":"point","last_updated":"2026-09-24T08:28:00.000Z","lower":null,"nms_id":"1790046207508000","notam_type":"N","number":"Y1433/26","q_code":"QMPLT","qline_offset_nm":null,"radius_nm":null,"raw_text":"Y1433/26 NOTAMN\r\nQ)ZYSH/QMPLT/IV/M/A/000/999/3858N12132E005\r\nA)ZYTL B)2609230700 C)2609261500 \r\nE) PARKING STAND NR.15 WINGSPAN LIMITATION CHANGED TO LESS THAN \r\n36M (EXCLUSIVE),DUE TO WIP.\r\n ","series":"Y","source":"nms","status":"cancelled","title":"中国本土 ZYTL Y1433/26","upper":null,"valid_end":"2026-09-24T08:26:00+00:00","valid_raw":[],"valid_start":"2026-09-23T07:00:00+00:00"},"type":"Feature"},{"geometry":{"coordinates":[121.533333,38.966667],"type":"Point"},"properties":{"area_group":"CN","category":"other","date":"2026-09-22","ended_by":"Y1459/26","estimated_end":false,"fir":"ZYSH","first_seen":"2026-09-24T09:24:57+00:00","focus_tag":"admin","geometry_source":"qline-point","icao_location":"ZYTL","issuer":"ZBBBYNYX","kind":"point","last_updated":"2026-09-24T08:28:00.000Z","lower":null,"nms_id":"1790081675082000","notam_type":"R","number":"Y1438/26","q_code":"QMPLC","qline_offset_nm":null,"radius_nm":null,"raw_text":"Y1438/26 NOTAMR Y1337/26\r\nQ)ZYSH/QMPLC/IV/BO/A/000/999/3858N12132E005\r\nA)ZYTL B)2609221249 C)2609261500 \r\nE) PARKING STAND NR.13 CLSD DUE TO WIP.","series":"Y","source":"nms","status":"cancelled","title":"中国本土 ZYTL Y1438/26","upper":null,"valid_end":"2026-09-24T08:26:00+00:00","valid_raw":[],"valid_start":"2026-09-22T12:49:00+00:00"},"type":"Feature"},{"geometry":{"coordinates":[123.483333,41.65],"type":"Point"},"properties":{"area_group":"CN","category":"other","date":"2026-07-29","ended_by":"Y1453/26","estimated_end":true,"fir":"ZYSH","first_seen":"2026-09-24T09:24:57+00:00","focus_tag":"admin","geometry_source":"qline-point","icao_location":"ZYTX","issuer":"ZBBBYNYX","kind":"point","last_updated":"2026-09-24T05:41:00.000Z","lower":null,"nms_id":"1785308225850000","notam_type":"R","number":"Y0929/26","q_code":"QNBXX","qline_offset_nm":null,"radius_nm":null,"raw_text":"Y0929/26 NOTAMR Y0657/26\r\nQ)ZYSH/QNBXX///AE/000/999/4139N12329E025\r\nA)ZYTX B)2607290650 C)2610311559 EST\r\nE) DONGYANGJIAO NDB 'PU' 296KHZ LIMITED TO USE:\r\n1. U/S ON BEARING 015-035DEG(CLOCKWISE).\r\n2. U/S BEYOND 16NM ON BEARING 341DEG FOR DEPARTURE PROCEDURE.\r\n3. U/S BEYOND 27NM ON BEARING 257DEG FOR ARRIVAL PROCEDURE.\r\n4. U/S BEYOND 23NM ON BEARING 261DEG FOR ARRIVAL/DEPARTURE \r\nPROCEDURE.\r\n5. U/S BEYOND 20NM ON BEARING 293DEG FOR ARRIVAL/DEPARTURE \r\nPROCEDURE.\r\n ","series":"Y","source":"nms","status":"cancelled","title":"中国本土 ZYTX Y0929/26","upper":null,"valid_end":"2026-09-24T05:40:00+00:00","valid_raw":[],"valid_start":"2026-07-29T06:50:00+00:00"},"type":"Feature"},{"geometry":{"coordinates":[120.65,25.033333],"type":"Point"},"properties":{"area_group":"TW","category":"other","date":"2026-09-23","ended_by":"A3541/26","estimated_end":false,"fir":"RCAA","first_seen":"2026-09-24T09:24:57+00:00","focus_tag":"admin","geometry_source":"qline-point","icao_location":"RCAA","issuer":"RCTPYNYX","kind":"point","last_updated":"2026-09-24T09:24:00.000Z","lower":null,"nms_id":"1790162403355000","notam_type":"R","number":"A3524/26","q_code":"QPFCA","qline_offset_nm":null,"radius_nm":null,"raw_text":"A3524/26 NOTAMR A3518/26\r\nQ) RCAA/QPFCA/IV/NBO/E/000/999/2502N12039E299\r\nA) RCAA\r\nB) 2609231119 C) 2609241600\r\nE) CONSEQUENT TO FLOW CTL IMPOSED BY MANILA ACC,\r\nFLOW CTL AT FIR BDRY AS FLW:\r\nACFT DEP FM KOREA/JAPAN OVERFLYING TAIPEI FIR ENTERING\r\nMANILA FIR VIA KABAM IS SUBJECT TO THE FLW RESTRICTIONS:\r\n(1) 10 MIN INTERVAL REGARDLESS OF ALT AT SALMI\r\n(2) 15 MIN INTERVAL REGARDLESS OF ALT AT BULAN\r\n(3) 12 MIN INTERVAL REGARDLESS OF ALT AT IGURU\r\n(DEP FM KOREA VIA SALMI ONLY)\r\n(DEP FM JAPAN VIA BULAN/IGURU ONLY)\r\n(VVDN EXCLUDED)","series":"A","source":"nms","status":"cancelled","title":"台湾 RCAA A3524/26","upper":null,"valid_end":"2026-09-24T09:24:00+00:00","valid_raw":[],"valid_start":"2026-09-23T11:19:00+00:00"},"type":"Feature"},{"geometry":{"coordinates":[121.233333,25.083333],"type":"Point"},"properties":{"area_group":"TW","category":"other","date":"2026-06-29","ended_by":"A3530/26","estimated_end":true,"fir":"RCAA","first_seen":"2026-09-24T09:24:57+00:00","focus_tag":"admin","geometry_source":"qline-point","icao_location":"RCTP","issuer":"RCTPYNYX","kind":"point","last_updated":"2026-09-24T06:35:00.000Z","lower":null,"nms_id":"1782727119574000","notam_type":"N","number":"A2164/26","q_code":"QMRXX","qline_offset_nm":null,"radius_nm":null,"raw_text":"A2164/26 NOTAMN\r\nQ) RCAA/QMRXX/IV/NBO/A/000/999/2505N12114E005\r\nA) RCTP\r\nB) 2606300230 C) 2609270300EST\r\nD) 0230-0300\r\nE) SCHEDULED CLOSURE OF RWY 05L/23R SUSPENDED.\r\nREF AIP RCTP AD 2.20.1, ITEM 4.","series":"A","source":"nms","status":"cancelled","title":"台湾 RCTP A2164/26","upper":null,"valid_end":"2026-09-24T06:35:00+00:00","valid_raw":["0230-0300"],"valid_start":"2026-06-30T02:30:00+00:00"},"type":"Feature"},{"geometry":{"coordinates":[121.233333,25.083333],"type":"Point"},"properties":{"area_group":"TW","category":"other","date":"2026-06-29","ended_by":"A3534/26","estimated_end":true,"fir":"RCAA","first_seen":"2026-09-24T09:24:57+00:00","focus_tag":"admin","geometry_source":"qline-point","icao_location":"RCTP","issuer":"RCTPYNYX","kind":"point","last_updated":"2026-09-24T06:40:00.000Z","lower":null,"nms_id":"1782727352996000","notam_type":"N","number":"A2166/26","q_code":"QMRXX","qline_offset_nm":null,"radius_nm":null,"raw_text":"A2166/26 NOTAMN\r\nQ) RCAA/QMRXX/IV/NBO/A/000/999/2505N12114E005\r\nA) RCTP\r\nB) 2606300330 C) 2609270400EST\r\nD) 0330-0400\r\nE) SCHEDULED CLOSURE OF RWY 05R/23L SUSPENDED.\r\nREF AIP RCTP AD 2.20.1, ITEM 4.","series":"A","source":"nms","status":"cancelled","title":"台湾 RCTP A2166/26","upper":null,"valid_end":"2026-09-24T06:40:00+00:00","valid_raw":["0330-0400"],"valid_start":"2026-06-30T03:30:00+00:00"},"type":"Feature"},{"geometry":{"coordinates":[121.233333,25.083333],"type":"Point"},"properties":{"area_group":"TW","category":"other","date":"2026-08-10","ended_by":"A3532/26","estimated_end":false,"fir":"RCAA","first_seen":"2026-09-24T09:24:57+00:00","focus_tag":"admin","geometry_source":"qline-point","icao_location":"RCTP","issuer":"RCTPYNYX","kind":"point","last_updated":"2026-09-24T06:38:00.000Z","lower":null,"nms_id":"1786362695775000","notam_type":"N","number":"A2812/26","q_code":"QMRLC","qline_offset_nm":null,"radius_nm":null,"raw_text":"A2812/26 NOTAMN\r\nQ) RCAA/QMRLC/IV/NBO/A/000/999/2505N12114E005\r\nA) RCTP\r\nB) 2608120300 C) 2609270330\r\nD) 0300-0330\r\nE) RWY 05L/23R CLSD DUE TO INSPECTION.","series":"A","source":"nms","status":"cancelled","title":"台湾 RCTP A2812/26","upper":null,"valid_end":"2026-09-24T06:38:00+00:00","valid_raw":["0300-0330"],"valid_start":"2026-08-12T03:00:00+00:00"},"type":"Feature"},{"geometry":{"coordinates":[121.233333,25.083333],"type":"Point"},"properties":{"area_group":"TW","category":"other","date":"2026-08-24","ended_by":"A3536/26","estimated_end":false,"fir":"RCAA","first_seen":"2026-09-24T09:24:57+00:00","focus_tag":"admin","geometry_source":"qline-point","icao_location":"RCTP","issuer":"RCTPYNYX","kind":"point","last_updated":"2026-09-24T06:42:00.000Z","lower":null,"nms_id":"1787542360530000","notam_type":"N","number":"A3022/26","q_code":"QMRLC","qline_offset_nm":null,"radius_nm":null,"raw_text":"A3022/26 NOTAMN\r\nQ) RCAA/QMRLC/IV/NBO/A/000/999/2505N12114E005\r\nA) RCTP\r\nB) 2608250400 C) 2609270430\r\nD) 0400-0430\r\nE) RWY 05R/23L CLSD DUE TO INSPECTION.","series":"A","source":"nms","status":"cancelled","title":"台湾 RCTP A3022/26","upper":null,"valid_end":"2026-09-24T06:42:00+00:00","valid_raw":["0400-0430"],"valid_start":"2026-08-25T04:00:00+00:00"},"type":"Feature"}],"type":"FeatureCollection"}
